[{"OBJECT_NAME":"STARLINK-5040","OBJECT_ID":"2022-119AE","EPOCH":"2026-03-09T22:35:42.265824","MEAN_MOTION":15.08840121,"ECCENTRICITY":0.00013015,"INCLINATION":53.2178,"RA_OF_ASC_NODE":312.942,"ARG_OF_PERICENTER":89.8058,"MEAN_ANOMALY":270.3083,"EPHEMERIS_TYPE":0,"CLASSIFICATION_TYPE":"U","NORAD_CAT_ID":53914,"ELEMENT_SET_NO":999,"REV_AT_EPOCH":19186,"BSTAR":-2.2912224e-5,"MEAN_MOTION_DOT":-6.53e-6,"MEAN_MOTION_DDOT":0},{"OBJECT_NAME":"CZ-6A DEB","OBJECT_ID":"2022-151KK","EPOCH":"2026-03-09T15:42:53.993376","MEAN_MOTION":15.13886585,"ECCENTRICITY":0.0019766,"INCLINATION":98.5478,"RA_OF_ASC_NODE":140.8365,"ARG_OF_PERICENTER":144.334,"MEAN_ANOMALY":215.9214,"EPHEMERIS_TYPE":0,"CLASSIFICATION_TYPE":"U","NORAD_CAT_ID":54531,"ELEMENT_SET_NO":999,"REV_AT_EPOCH":8393,"BSTAR":0.0066445138,"MEAN_MOTION_DOT":0.00122683,"MEAN_MOTION_DDOT":0}]
